NUSAT-50 (NANCY ROMAN)  
1 60493U 24149AB  26068.80227738  .00012094  00000+0  42252-3 0  9994
2 60493  97.3817 150.7693 0002523 238.0469 122.0527 15.29713355 86930
STARLINK-35226          
1 65492U 25198A   26068.81665882  .00016855  00000+0  57996-3 0  9990
2 65492  53.1595 270.1174 0001028  77.2929 282.8187 15.30197756 28645
